{
  "type": "FeatureCollection",
  "features": [
    {
      "type": "Feature",
      "properties": {
        "norad_id": 34121,
        "name": "COSMOS 2251 DEB",
        "group": "cosmos-2251-debris",
        "lat": 64.56425996189381,
        "lon": 110.75736206241235,
        "alt_km": 1072.1248763799176,
        "timestamp": "2025-12-26T11:25:45.584404+00:00",
        "meta_object_name": "COSMOS 2251 DEB",
        "meta_object_id": "1993-036KS",
        "meta_epoch": "2025-12-26T04:19:10.722144",
        "meta_mean_motion": 13.9197943,
        "meta_eccentricity": 0.02411,
        "meta_inclination": 73.9924,
        "meta_ra_of_asc_node": 74.1374,
        "meta_arg_of_pericenter": 276.786,
        "meta_mean_anomaly": 108.074,
        "meta_ephemeris_type": 0,
        "meta_classification_type": "U",
        "meta_norad_cat_id": 34121,
        "meta_element_set_no": 999,
        "meta_rev_at_epoch": 85312,
        "meta_bstar": 0.0012527,
        "meta_mean_motion_dot": 2.002e-05,
        "meta_mean_motion_ddot": 0,
        "tle_line1": "1 34121U 93036KS  25360.17998521  .00002002  00000+0  12527-2 0  9992",
        "tle_line2": "2 34121  73.9924  74.1374 0241100 276.7860 108.0740 13.91979430853122"
      },
      "geometry": {
        "type": "Point",
        "coordinates": [
          110.75736206241235,
          64.56425996189381
        ]
      }
    },
    {
      "type": "Feature",
      "properties": {
        "norad_id": 34122,
        "name": "COSMOS 2251 DEB",
        "group": "cosmos-2251-debris",
        "lat": -25.144261213244732,
        "lon": 84.48327484355836,
        "alt_km": 622.8177017686257,
        "timestamp": "2025-12-26T11:25:45.584413+00:00",
        "meta_object_name": "COSMOS 2251 DEB",
        "meta_object_id": "1993-036KT",
        "meta_epoch": "2025-12-25T16:34:08.283360",
        "meta_mean_motion": 14.65194212,
        "meta_eccentricity": 0.00850759,
        "meta_inclination": 74.0361,
        "meta_ra_of_asc_node": 93.7165,
        "meta_arg_of_pericenter": 346.9472,
        "meta_mean_anomaly": 163.709,
        "meta_ephemeris_type": 0,
        "meta_classification_type": "U",
        "meta_norad_cat_id": 34122,
        "meta_element_set_no": 999,
        "meta_rev_at_epoch": 88874,
        "meta_bstar": 0.00109519,
        "meta_mean_motion_dot": 6.189e-05,
        "meta_mean_motion_ddot": 0,
        "tle_line1": "1 34122U 93036KT  25359.69037365  .00006189  00000+0  10952-2 0  9998",
        "tle_line2": "2 34122  74.0361  93.7165 0085075 346.9472 163.7090 14.65194212888742"
      },
      "geometry": {
        "type": "Point",
        "coordinates": [
          84.48327484355836,
          -25.144261213244732
        ]
      }
    },
    {
      "type": "Feature",
      "properties": {
        "norad_id": 34127,
        "name": "COSMOS 2251 DEB",
        "group": "cosmos-2251-debris",
        "lat": 27.39944035158031,
        "lon": 27.487391732709995,
        "alt_km": 866.0151574873262,
        "timestamp": "2025-12-26T11:25:45.584422+00:00",
        "meta_object_name": "COSMOS 2251 DEB",
        "meta_object_id": "1993-036KY",
        "meta_epoch": "2025-12-26T03:11:06.016128",
        "meta_mean_motion": 14.31660585,
        "meta_eccentricity": 0.0114493,
        "meta_inclination": 74.1802,
        "meta_ra_of_asc_node": 19.657,
        "meta_arg_of_pericenter": 216.8999,
        "meta_mean_anomaly": 201.8533,
        "meta_ephemeris_type": 0,
        "meta_classification_type": "U",
        "meta_norad_cat_id": 34127,
        "meta_element_set_no": 999,
        "meta_rev_at_epoch": 86963,
        "meta_bstar": 0.0014462,
        "meta_mean_motion_dot": 4.119e-05,
        "meta_mean_motion_ddot": 0,
        "tle_line1": "1 34127U 93036KY  25360.13270852  .00004119  00000+0  14462-2 0  9995",
        "tle_line2": "2 34127  74.1802  19.6570 0114493 216.8999 201.8533 14.31660585869638"
      },
      "geometry": {
        "type": "Point",
        "coordinates": [
          27.487391732709995,
          27.39944035158031
        ]
      }
    },
    {
      "type": "Feature",
      "properties": {
        "norad_id": 34128,
        "name": "COSMOS 2251 DEB",
        "group": "cosmos-2251-debris",
        "lat": 73.02462140093806,
        "lon": -21.25420515714648,
        "alt_km": 547.1520948255229,
        "timestamp": "2025-12-26T11:25:45.584431+00:00",
        "meta_object_name": "COSMOS 2251 DEB",
        "meta_object_id": "1993-036KZ",
        "meta_epoch": "2025-12-25T20:58:06.002112",
        "meta_mean_motion": 15.01656939,
        "meta_eccentricity": 0.00259758,
        "meta_inclination": 73.9985,
        "meta_ra_of_asc_node": 269.9103,
        "meta_arg_of_pericenter": 19.1021,
        "meta_mean_anomaly": 48.9677,
        "meta_ephemeris_type": 0,
        "meta_classification_type": "U",
        "meta_norad_cat_id": 34128,
        "meta_element_set_no": 999,
        "meta_rev_at_epoch": 89364,
        "meta_bstar": 0.0013820706,
        "meta_mean_motion_dot": 0.00018089,
        "meta_mean_motion_ddot": 0,
        "tle_line1": "1 34128U 93036KZ  25359.87368058  .00018089  00000+0  13821-2 0  9990",
        "tle_line2": "2 34128  73.9985 269.9103 0025975  19.1021  48.9677 15.01656939893649"
      },
      "geometry": {
        "type": "Point",
        "coordinates": [
          -21.25420515714648,
          73.02462140093806
        ]
      }
    },
    {
      "type": "Feature",
      "properties": {
        "norad_id": 34129,
        "name": "COSMOS 2251 DEB",
        "group": "cosmos-2251-debris",
        "lat": 1.3937714206519098,
        "lon": 132.24344285825413,
        "alt_km": 664.5099389613824,
        "timestamp": "2025-12-26T11:25:45.584440+00:00",
        "meta_object_name": "COSMOS 2251 DEB",
        "meta_object_id": "1993-036LA",
        "meta_epoch": "2025-12-25T23:14:18.299040",
        "meta_mean_motion": 14.75979627,
        "meta_eccentricity": 0.0033565,
        "meta_inclination": 74.0358,
        "meta_ra_of_asc_node": 313.6363,
        "meta_arg_of_pericenter": 31.2725,
        "meta_mean_anomaly": 329.0436,
        "meta_ephemeris_type": 0,
        "meta_classification_type": "U",
        "meta_norad_cat_id": 34129,
        "meta_element_set_no": 999,
        "meta_rev_at_epoch": 61493,
        "meta_bstar": 0.0015138,
        "meta_mean_motion_dot": 0.00010498,
        "meta_mean_motion_ddot": 0,
        "tle_line1": "1 34129U 93036LA  25359.96826735  .00010498  00000+0  15138-2 0  9991",
        "tle_line2": "2 34129  74.0358 313.6363 0033565  31.2725 329.0436 14.75979627614932"
      },
      "geometry": {
        "type": "Point",
        "coordinates": [
          132.24344285825413,
          1.3937714206519098
        ]
      }
    },
    {
      "type": "Feature",
      "properties": {
        "norad_id": 34136,
        "name": "COSMOS 2251 DEB",
        "group": "cosmos-2251-debris",
        "lat": -4.206049149122308,
        "lon": -163.25342617588083,
        "alt_km": 593.0884083613983,
        "timestamp": "2025-12-26T11:25:45.584449+00:00",
        "meta_object_name": "COSMOS 2251 DEB",
        "meta_object_id": "1993-036LH",
        "meta_epoch": "2025-12-26T01:01:34.800096",
        "meta_mean_motion": 14.80159737,
        "meta_eccentricity": 0.0084924,
        "meta_inclination": 74.0199,
        "meta_ra_of_asc_node": 16.3936,
        "meta_arg_of_pericenter": 135.693,
        "meta_mean_anomaly": 259.0769,
        "meta_ephemeris_type": 0,
        "meta_classification_type": "U",
        "meta_norad_cat_id": 34136,
        "meta_element_set_no": 999,
        "meta_rev_at_epoch": 90207,
        "meta_bstar": 0.00035497,
        "meta_mean_motion_dot": 2.831e-05,
        "meta_mean_motion_ddot": 0,
        "tle_line1": "1 34136U 93036LH  25360.04276389  .00002831  00000+0  35497-3 0  9997",
        "tle_line2": "2 34136  74.0199  16.3936 0084924 135.6930 259.0769 14.80159737902072"
      },
      "geometry": {
        "type": "Point",
        "coordinates": [
          -163.25342617588083,
          -4.206049149122308
        ]
      }
    },
    {
      "type": "Feature",
      "properties": {
        "norad_id": 34139,
        "name": "COSMOS 2251 DEB",
        "group": "cosmos-2251-debris",
        "lat": -48.70282619589791,
        "lon": -151.14853596750268,
        "alt_km": 672.8122710905172,
        "timestamp": "2025-12-26T11:25:45.584458+00:00",
        "meta_object_name": "COSMOS 2251 DEB",
        "meta_object_id": "1993-036LL",
        "meta_epoch": "2025-12-26T02:31:49.353312",
        "meta_mean_motion": 14.59229708,
        "meta_eccentricity": 0.0042389,
        "meta_inclination": 74.0296,
        "meta_ra_of_asc_node": 228.5847,
        "meta_arg_of_pericenter": 297.5153,
        "meta_mean_anomaly": 224.0195,
        "meta_ephemeris_type": 0,
        "meta_classification_type": "U",
        "meta_norad_cat_id": 34139,
        "meta_element_set_no": 999,
        "meta_rev_at_epoch": 88344,
        "meta_bstar": 0.0012579,
        "meta_mean_motion_dot": 5.985e-05,
        "meta_mean_motion_ddot": 0,
        "tle_line1": "1 34139U 93036LL  25360.10543233  .00005985  00000+0  12579-2 0  9990",
        "tle_line2": "2 34139  74.0296 228.5847 0042389 297.5153 224.0195 14.59229708883441"
      },
      "geometry": {
        "type": "Point",
        "coordinates": [
          -151.14853596750268,
          -48.70282619589791
        ]
      }
    }
  ]
}